PLEIADES 1A             
1 38012U 11076F   26192.20787809  .00000058  00000+0  22319-4 0  9993
2 38012  98.1971 266.9871 0001718  82.2442 354.5419 14.58545496775493
PLEIADES 1B             
1 39019U 12068A   26192.15860299 -.00000053  00000+0 -16031-5 0  9994
2 39019  98.1940 266.8794 0001614  81.0864 279.0518 14.58532511724343
