{"fetched_at":"2026-07-11T09:24:33.529Z","source":"https://celestrak.org/NORAD/elements/gp.php?NAME=PLEIADES&FORMAT=JSON","constellation":"pleiades","records":[{"OBJECT_NAME":"PLEIADES 1A","OBJECT_ID":"2011-076F","EPOCH":"2026-07-11T04:59:20.666976","CLASSIFICATION_TYPE":"U","MEAN_MOTION":14.58545496,"ECCENTRICITY":0.0001718,"INCLINATION":98.1971,"RA_OF_ASC_NODE":266.9871,"ARG_OF_PERICENTER":82.2442,"MEAN_ANOMALY":354.5419,"EPHEMERIS_TYPE":0,"NORAD_CAT_ID":38012,"ELEMENT_SET_NO":999,"REV_AT_EPOCH":77549,"BSTAR":0.000022319,"MEAN_MOTION_DOT":5.8e-7,"MEAN_MOTION_DDOT":0},{"OBJECT_NAME":"PLEIADES 1B","OBJECT_ID":"2012-068A","EPOCH":"2026-07-11T03:48:23.298336","CLASSIFICATION_TYPE":"U","MEAN_MOTION":14.58532511,"ECCENTRICITY":0.0001614,"INCLINATION":98.194,"RA_OF_ASC_NODE":266.8794,"ARG_OF_PERICENTER":81.0864,"MEAN_ANOMALY":279.0518,"EPHEMERIS_TYPE":0,"NORAD_CAT_ID":39019,"ELEMENT_SET_NO":999,"REV_AT_EPOCH":72434,"BSTAR":-0.0000016031,"MEAN_MOTION_DOT":-5.3e-7,"MEAN_MOTION_DDOT":0}]}
